STARLINK-2576           
1 48400U 21038AZ  26167.47146799  .00000712  00000+0  34722-4 0  9990
2 48400  53.1603 233.3259 0001252  89.1839 270.9306 15.31695135282571
STARLINK-2571           
1 48401U 21038BA  26167.50842445  .00001422  00000+0  57586-4 0  9998
2 48401  53.1586 233.1851 0001370  81.9397 278.1759 15.31692324282577
STARLINK-2593           
1 48404U 21038BD  26167.44347477  .00000509  00000+0  28184-4 0  9996
2 48404  53.1592 233.2634 0001391  86.6834 273.4326 15.31688221282577
STARLINK-2570           
1 48405U 21038BE  26167.45748477 -.00000461  00000+0 -30848-5 0  9993
2 48405  53.1577 233.3749 0001089  78.9086 281.2038 15.31707217282569
STARLINK-2568           
1 48406U 21038BF  26167.49051511  .00002040  00000+0  77510-4 0  9993
2 48406  53.1598 236.2173 0001235  88.5461 271.5682 15.31695101282535
STARLINK-2592           
1 48408U 21038BH  26167.47617299  .00004538  00000+0  15792-3 0  9991
2 48408  53.1576 233.5939 0001348  95.5492 264.5664 15.31700856282569
STARLINK-2563           
1 48410U 21038BK  26167.36469391  .00002716  00000+0  99281-4 0  9992
2 48410  53.1605 197.5315 0001233  82.0327 278.0814 15.31693657283066
STARLINK-2505           
1 48411U 21038BL  26167.80643191  .00000397  00000+0  24559-4 0  9993
2 48411  53.1582 192.7564 0001121  91.2029 268.9101 15.31707137283168
STARLINK-2581           
1 48412U 21038BM  26167.77948325  .00002043  00000+0  77570-4 0  9998
2 48412  53.1573 195.4833 0001246  90.0714 270.0430 15.31701756283120
STARLINK-2461           
1 48428U 21040A   26167.47530193  .00001946  00000+0  74458-4 0  9998
2 48428  53.1608  79.1714 0001513  94.6974 265.4200 15.31698910281811
STARLINK-2700           
1 48431U 21040D   26167.86962545  .00009933  00000+0  33123-3 0  9992
2 48431  53.1615  51.4121 0001299  80.6065 279.5083 15.31719050282225
STARLINK-2680           
1 48432U 21040E   26167.86496863  .00000394  00000+0  24462-4 0  9997
2 48432  53.1597  51.5400 0000776  68.8250 291.2835 15.31703441282211
STARLINK-2699           
1 48433U 21040F   26166.97007631  .00002844  00000+0  10338-3 0  9998
2 48433  53.1606  55.4125 0001303  90.6283 269.4868 15.31698586282087
STARLINK-2692           
1 48434U 21040G   26167.86528705  .00000060  00000+0  13688-4 0  9998
2 48434  53.1612  51.4013 0001195 104.8097 255.3037 15.31709543282232
STARLINK-2633           
1 48435U 21040H   26167.84466072 -.00006864  00000+0 -20960-3 0  9995
2 48435  53.1608  63.9943 0001173  83.4251 276.6884 15.31702615282046
STARLINK-2639           
1 48436U 21040J   26167.03675958 -.00003561  00000+0 -10306-3 0  9996
2 48436  53.1598  80.6345 0001180  92.9389 267.1747 15.31697204281748
STARLINK-2642           
1 48437U 21040K   26167.50625632  .00002603  00000+0  95623-4 0  9993
2 48437  53.1615  91.3432 0001371  95.5289 264.5869 15.31702017281638
STARLINK-2640           
1 48438U 21040L   26167.03712765  .00005235  00000+0  18032-3 0  9998
2 48438  53.1596  80.6910 0001258  76.0678 284.0463 15.31704520281749
STARLINK-2583           
1 48439U 21040M   26167.05112468  .00002729  00000+0  99669-4 0  9996
2 48439  53.1592  80.8065 0001047  78.8208 281.2911 15.31699829281746
STARLINK-2682           
1 48440U 21040N   26167.87137477  .00007366  00000+0  24883-3 0  9992
2 48440  53.1611  76.7192 0001447  95.1522 264.9645 15.31710242281879
STARLINK-2702           
1 48441U 21040P   26167.48453255  .00005204  00000+0  17925-3 0  9993
2 48441  53.1610  78.6097 0001428  94.0030 266.1135 15.31719110281810
STARLINK-2644           
1 48442U 21040Q   26167.44489477  .00064607  00000+0  13439-2 0  9992
2 48442  53.1589  76.2737 0001818 182.0193 178.0807 15.45054198281845
STARLINK-2663           
1 48443U 21040R   26167.07438588  .00003592  00000+0  12747-3 0  9997
2 48443  53.1609  80.4024 0001446  77.2686 282.8477 15.31697572281755
STARLINK-2645           
1 48444U 21040S   26167.07902512  .00004346  00000+0  15163-3 0  9994
2 48444  53.1603  80.4709 0001380  72.8144 287.3008 15.31720954281758
STARLINK-2634           
1 48445U 21040T   26167.06972938  .00001639  00000+0  64556-4 0  9996
2 48445  53.1593  80.4505 0001283  79.8616 280.2530 15.31699198281751
STARLINK-2655           
1 48449U 21040X   26167.45190965  .00001368  00000+0  55833-4 0  9992
2 48449  53.1607  78.6816 0001235  94.7243 265.3899 15.31700901281818
STARLINK-2703           
1 48452U 21040AA  26167.44725249  .00002088  00000+0  79024-4 0  9992
2 48452  53.1595  78.7010 0001304 102.1693 257.9454 15.31703631281812
STARLINK-2620           
1 48453U 21040AB  26167.04642660  .00002651  00000+0  97181-4 0  9994
2 48453  53.1613  80.5395 0001202 104.4136 255.6999 15.31693074281756
STARLINK-2654           
1 48454U 21040AC  26167.23750668 -.00000403  00000+0 -12136-5 0  9997
2 48454  53.1593  79.6361 0001059  68.8736 291.2378 15.31698341281787
STARLINK-2497           
1 48455U 21040AD  26167.45658564  .00007433  00000+0  25099-3 0  9992
2 48455  53.1602  78.9139 0001347  90.6280 269.4876 15.31706721281806
