OBJECT_NAME,OBJECT_ID,EPOCH,MEAN_MOTION,ECCENTRICITY,INCLINATION,RA_OF_ASC_NODE,ARG_OF_PERICENTER,MEAN_ANOMALY,EPHEMERIS_TYPE,CLASSIFICATION_TYPE,NORAD_CAT_ID,ELEMENT_SET_NO,REV_AT_EPOCH,BSTAR,MEAN_MOTION_DOT,MEAN_MOTION_DDOT
STARLINK-2576,2021-038AZ,2026-06-16T11:18:54.834336,15.31695135,.00012524,53.1603,233.3259,89.1839,270.9306,0,U,48400,999,28257,.34722163E-4,.712E-5,0
STARLINK-2571,2021-038BA,2026-06-16T12:12:07.872480,15.31692324,.00013706,53.1586,233.1851,81.9397,278.1759,0,U,48401,999,28257,.57585846E-4,.1422E-4,0
STARLINK-2593,2021-038BD,2026-06-16T10:38:36.220128,15.31688221,.00013915,53.1592,233.2634,86.6834,273.4326,0,U,48404,999,28257,.28184357E-4,.509E-5,0
STARLINK-2570,2021-038BE,2026-06-16T10:58:46.684128,15.31707217,.00010897,53.1577,233.3749,78.9086,281.2038,0,U,48405,999,28256,-.3084825E-5,-.461E-5,0
STARLINK-2568,2021-038BF,2026-06-16T11:46:20.505504,15.31695101,.0001235,53.1598,236.2173,88.5461,271.5682,0,U,48406,999,28253,.77510112E-4,.204E-4,0
STARLINK-2592,2021-038BH,2026-06-16T11:25:41.346336,15.31700856,.00013484,53.1576,233.5939,95.5492,264.5664,0,U,48408,999,28256,.15791713E-3,.4538E-4,0
STARLINK-2563,2021-038BK,2026-06-16T08:45:09.553824,15.31693657,.00012335,53.1605,197.5315,82.0327,278.0814,0,U,48410,999,28306,.99281344E-4,.2716E-4,0
STARLINK-2505,2021-038BL,2026-06-16T19:21:15.717024,15.31707137,.0001121,53.1582,192.7564,91.2029,268.9101,0,U,48411,999,28316,.24559E-4,.397E-5,0
STARLINK-2581,2021-038BM,2026-06-16T18:42:27.352800,15.31701756,.0001246,53.1573,195.4833,90.0714,270.0430,0,U,48412,999,28312,.7757E-4,.2043E-4,0
STARLINK-2461,2021-040A,2026-06-16T11:24:26.086752,15.31698910,.00015138,53.1608,79.1714,94.6974,265.4200,0,U,48428,999,28181,.7445758E-4,.1946E-4,0
STARLINK-2700,2021-040D,2026-06-16T20:52:15.638880,15.31719050,.0001299,53.1615,51.4121,80.6065,279.5083,0,U,48431,999,28222,.33123E-3,.9933E-4,0
STARLINK-2680,2021-040E,2026-06-16T20:45:33.289632,15.31703441,.0000776,53.1597,51.5400,68.8250,291.2835,0,U,48432,999,28221,.24462E-4,.394E-5,0
STARLINK-2699,2021-040F,2026-06-15T23:16:54.593184,15.31698586,.0001303,53.1606,55.4125,90.6283,269.4868,0,U,48433,999,28208,.10338E-3,.2844E-4,0
STARLINK-2692,2021-040G,2026-06-16T20:46:00.801120,15.31709543,.0001195,53.1612,51.4013,104.8097,255.3037,0,U,48434,999,28223,.13688E-4,.6E-6,0
STARLINK-2633,2021-040H,2026-06-16T20:16:18.686208,15.31702615,.0001173,53.1608,63.9943,83.4251,276.6884,0,U,48435,999,28204,-.2096E-3,-.6864E-4,0
STARLINK-2639,2021-040J,2026-06-16T00:52:56.027712,15.31697204,.00011806,53.1598,80.6345,92.9389,267.1747,0,U,48436,999,28174,-.1030628E-3,-.3561E-4,0
STARLINK-2642,2021-040K,2026-06-16T12:09:00.546048,15.31702017,.00013719,53.1615,91.3432,95.5289,264.5869,0,U,48437,999,28163,.95622746E-4,.2603E-4,0
STARLINK-2640,2021-040L,2026-06-16T00:53:27.828960,15.31704520,.00012585,53.1596,80.6910,76.0678,284.0463,0,U,48438,999,28174,.18031685E-3,.5235E-4,0
STARLINK-2583,2021-040M,2026-06-16T01:13:37.172352,15.31699829,.0001047,53.1592,80.8065,78.8208,281.2911,0,U,48439,999,28174,.99668512E-4,.2729E-4,0
STARLINK-2682,2021-040N,2026-06-16T20:54:46.780128,15.31710242,.0001447,53.1611,76.7192,95.1522,264.9645,0,U,48440,999,28187,.24883E-3,.7366E-4,0
STARLINK-2702,2021-040P,2026-06-16T11:37:43.612320,15.31719110,.00014285,53.1610,78.6097,94.0030,266.1135,0,U,48441,999,28181,.17924781E-3,.5204E-4,0
STARLINK-2644,2021-040Q,2026-06-16T10:40:38.908128,15.45054198,.00018188,53.1589,76.2737,182.0193,178.0807,0,U,48442,999,28184,.13438863E-2,.64607E-3,0
STARLINK-2663,2021-040R,2026-06-16T01:47:06.940032,15.31697572,.00014464,53.1609,80.4024,77.2686,282.8477,0,U,48443,999,28175,.12747447E-3,.3592E-4,0
STARLINK-2645,2021-040S,2026-06-16T01:53:47.770368,15.31720954,.000138,53.1603,80.4709,72.8144,287.3008,0,U,48444,999,28175,.15162798E-3,.4346E-4,0
STARLINK-2634,2021-040T,2026-06-16T01:40:24.618432,15.31699198,.00012835,53.1593,80.4505,79.8616,280.2530,0,U,48445,999,28175,.64555954E-4,.1639E-4,0
STARLINK-2655,2021-040X,2026-06-16T10:50:44.993760,15.31700901,.00012352,53.1607,78.6816,94.7243,265.3899,0,U,48449,999,28181,.5583278E-4,.1368E-4,0
STARLINK-2703,2021-040AA,2026-06-16T10:44:02.615136,15.31703631,.00013041,53.1595,78.7010,102.1693,257.9454,0,U,48452,999,28181,.79023653E-4,.2088E-4,0
STARLINK-2620,2021-040AB,2026-06-16T01:06:51.258240,15.31693074,.00012023,53.1613,80.5395,104.4136,255.6999,0,U,48453,999,28175,.97180895E-4,.2651E-4,0
STARLINK-2654,2021-040AC,2026-06-16T05:42:00.577152,15.31698341,.0001059,53.1593,79.6361,68.8736,291.2378,0,U,48454,999,28178,-.12136E-5,-.403E-5,0
STARLINK-2497,2021-040AD,2026-06-16T10:57:28.999296,15.31706721,.00013471,53.1602,78.9139,90.6280,269.4876,0,U,48455,999,28180,.25098793E-3,.7433E-4,0
